      2.10          N: GNSS NAV DATA                        RINEX VERSION / TYPE
fic2rin                                 04/07/2018 00:07:43 PGM / RUN BY / DATE
                                                            END OF HEADER
30 18  4  6  4  0  0.0 8.764024823904e-05-3.865352482535e-12 0.000000000000e+00
    9.600000000000e+01 8.856250000000e+01 4.730554189427e-09 2.567293627547e+00
    4.569068551064e-06 3.195992670953e-03 8.204951882362e-06 5.153759191513e+03
    4.464000000000e+05-5.029141902924e-08 1.441222982208e+00 3.725290298462e-09
    9.445099905866e-01 2.118750000000e+02-3.125113805991e+00-8.181769374964e-09
    1.964367538078e-11 1.000000000000e+00 1.995000000000e+03 0.000000000000e+00
    2.400000000000e+00 0.000000000000e+00 3.725290298462e-09 9.600000000000e+01
    4.392060000000e+05 4.000000000000e+00
29 18  4  6  4  0  0.0 4.707970656455e-04-6.025402399246e-12 0.000000000000e+00
    5.600000000000e+01-6.118750000000e+01 4.037311027353e-09 2.193378969895e-01
   -3.349035978317e-06 6.540565518662e-04 7.359310984612e-06 5.153717714310e+03
    4.464000000000e+05 1.490116119385e-08-2.740088585425e+00-3.352761268616e-08
    9.838781913444e-01 2.533437500000e+02 9.167181575623e-01-7.864256149264e-09
   -2.857261873569e-12 1.000000000000e+00 1.995000000000e+03 0.000000000000e+00
    2.400000000000e+00 0.000000000000e+00-1.024454832077e-08 5.600000000000e+01
    4.392060000000e+05 4.000000000000e+00
27 18  4  6  4  0  0.0 3.702100366354e-04 1.136868377216e-13 0.000000000000e+00
    7.800000000000e+01-6.890625000000e+01 4.215175578982e-09-9.658587608085e-01
   -3.585591912270e-06 5.786471534520e-03 6.880611181259e-06 5.153680141449e+03
    4.464000000000e+05 9.313225746155e-08-2.804348028626e+00-2.607703208923e-08
    9.773912029639e-01 2.527500000000e+02 3.839987026530e-01-7.966760418978e-09
   -1.000041655749e-11 1.000000000000e+00 1.995000000000e+03 0.000000000000e+00
    2.400000000000e+00 0.000000000000e+00 1.862645149231e-09 7.800000000000e+01
    4.392060000000e+05 4.000000000000e+00
20 18  4  6  4  0  0.0 5.050729960203e-04 9.094947017729e-13 0.000000000000e+00
    9.300000000000e+01-2.406250000000e+00 5.484871324049e-09-2.547660727107e+00
   -5.960464477539e-08 4.283242858946e-03 6.431713700294e-06 5.154825662613e+03
    4.464000000000e+05-1.862645149231e-08-8.126163599103e-01 7.264316082001e-08
    9.280383522481e-01 2.379375000000e+02 1.915752930685e+00-8.426779580622e-09
    6.857428496565e-11 1.000000000000e+00 1.995000000000e+03 0.000000000000e+00
    2.400000000000e+00 0.000000000000e+00-8.381903171539e-09 9.300000000000e+01
    4.392060000000e+05 4.000000000000e+00
 9 18  4  6  3 59 44.0 5.100676789880e-04 1.477928890381e-12 0.000000000000e+00
    2.000000000000e+00 5.250000000000e+00 4.675909056095e-09-8.217928500337e-01
    2.048909664154e-07 1.062633702531e-03 8.914619684219e-06 5.153650154114e+03
    4.463840000000e+05 3.725290298462e-09 3.290249637247e-01 2.980232238770e-08
    9.532386258950e-01 2.029062500000e+02 1.813944833512e+00-8.034620388475e-09
   -3.810873023872e-10 1.000000000000e+00 1.995000000000e+03 0.000000000000e+00
    2.400000000000e+00 0.000000000000e+00 1.396983861923e-09 2.000000000000e+00
    4.421460000000e+05 4.000000000000e+00
 4 18  4  6  3 59 44.0 5.058012902737e-05 3.069544618484e-12 0.000000000000e+00
    4.200000000000e+01 1.506250000000e+01 5.518444151064e-09 2.126913890958e-01
    7.860362529755e-07 9.800335625187e-03 3.769993782043e-06 5.153688148499e+03
    4.463840000000e+05-3.911554813385e-08 2.464251079137e+00 1.601874828339e-07
    9.794750668623e-01 3.181562500000e+02 9.093625864418e-01-8.234628719625e-09
    3.571577341961e-11 1.000000000000e+00 1.995000000000e+03 0.000000000000e+00
    2.400000000000e+00 6.300000000000e+01-1.955777406693e-08 4.200000000000e+01
    4.429260000000e+05 4.000000000000e+00
 4 18  4  6  5 59 44.0 5.060154944658e-05 3.069544618484e-12 0.000000000000e+00
    4.300000000000e+01 1.721875000000e+01 5.446298288756e-09 1.262784997778e+00
    8.512288331985e-07 9.801631909795e-03 4.282221198082e-06 5.153691041946e+03
    4.535840000000e+05-1.285225152969e-07 2.464192116224e+00 6.891787052155e-08
    9.794750171231e-01 3.069687500000e+02 9.094465769575e-01-8.208913362763e-09
   -1.678641350722e-11 1.000000000000e+00 1.995000000000e+03 0.000000000000e+00
    2.400000000000e+00 6.300000000000e+01-1.955777406693e-08 4.300000000000e+01
    4.464060000000e+05 4.000000000000e+00
 9 18  4  6  5 59 44.0 5.100788548589e-04 1.477928890381e-12 0.000000000000e+00
    3.000000000000e+00 5.531250000000e+00 4.687695261324e-09 2.283140214640e-01
    2.142041921616e-07 1.062166877091e-03 8.724629878998e-06 5.153649257660e+03
    4.535840000000e+05 1.676380634308e-08 3.289672691615e-01 1.862645149231e-09
    9.532358024631e-01 2.063437500000e+02 1.814034548426e+00-8.037477650349e-09
   -4.093027633887e-10 1.000000000000e+00 1.995000000000e+03 0.000000000000e+00
    2.400000000000e+00 0.000000000000e+00 1.396983861923e-09 3.000000000000e+00
    4.464060000000e+05 4.000000000000e+00
 1 18  4  6  6  0  0.0-3.883428871632e-05-2.501110429876e-12 0.000000000000e+00
    7.000000000000e+00-2.625000000000e+01 4.329466053925e-09-2.125725210039e+00
   -1.538544893265e-06 7.541207247414e-03 9.339302778244e-06 5.153671979904e+03
    4.536000000000e+05 4.656612873077e-08-1.748055939489e+00-9.685754776001e-08
    9.704069453215e-01 2.032187500000e+02 6.109689197536e-01-7.787824394146e-09
    4.157316026042e-10 1.000000000000e+00 1.995000000000e+03 0.000000000000e+00
    2.400000000000e+00 0.000000000000e+00 5.587935447693e-09 7.000000000000e+00
    4.464060000000e+05 4.000000000000e+00
 2 18  4  6  6  0  0.0 1.529064029455e-04-1.114131009672e-11 0.000000000000e+00
    9.300000000000e+01-3.262500000000e+01 4.749126391605e-09-1.774672727454e+00
   -1.445412635803e-06 1.788463303819e-02 8.720904588699e-06 5.153714534760e+03
    4.536000000000e+05 3.315508365631e-07-1.808113857097e+00 1.620501279831e-07
    9.494799724177e-01 2.000937500000e+02-1.871279742701e+00-7.884256982379e-09
    3.975165581602e-10 1.000000000000e+00 1.995000000000e+03 0.000000000000e+00
    3.400000000000e+00 0.000000000000e+00-2.048909664154e-08 9.300000000000e+01
    4.464060000000e+05 4.000000000000e+00
 8 18  4  6  6  0  0.0-9.686080738902e-05-1.364242052659e-12 0.000000000000e+00
    1.100000000000e+01-6.962500000000e+01 4.318037006431e-09 3.491578793243e-01
   -3.587454557419e-06 3.476434736513e-03 6.780028343201e-06 5.153545034409e+03
    4.536000000000e+05 9.313225746155e-09-2.812449572396e+00-8.754432201385e-08
    9.692076216735e-01 2.507812500000e+02-4.945390178208e-01-8.067836057755e-09
    1.071473202588e-12 1.000000000000e+00 1.995000000000e+03 0.000000000000e+00
    3.400000000000e+00 0.000000000000e+00 5.587935447693e-09 1.100000000000e+01
    4.464060000000e+05 4.000000000000e+00
 7 18  4  6  6  0  0.0 2.118325792253e-04-5.798028723802e-12 0.000000000000e+00
    1.000000000000e+01 8.778125000000e+01 4.253748614275e-09-2.820858097822e+00
    4.354864358902e-06 1.134103129152e-02 8.488073945045e-06 5.153682216644e+03
    4.536000000000e+05-1.676380634308e-08 1.406823300363e+00-1.247972249985e-07
    9.589011824032e-01 2.152812500000e+02-2.540011669750e+00-7.799610599374e-09
    4.750197864808e-11 1.000000000000e+00 1.995000000000e+03 0.000000000000e+00
    2.400000000000e+00 0.000000000000e+00-1.117587089539e-08 1.000000000000e+01
    4.464060000000e+05 4.000000000000e+00
 5 18  4  6  6  0  0.0-1.047598198056e-05 7.958078640513e-13 0.000000000000e+00
    5.700000000000e+01-8.843750000000e+00 5.221646073947e-09 8.599884985443e-01
   -1.732259988785e-07 5.290977889672e-03 6.625428795815e-06 5.153669927597e+03
    4.536000000000e+05 3.911554813385e-08-7.259946339163e-01 3.911554813385e-08
    9.476963724550e-01 2.436562500000e+02 6.126431344056e-01-8.386777914392e-09
   -1.464346710204e-11 1.000000000000e+00 1.995000000000e+03 0.000000000000e+00
    2.400000000000e+00 0.000000000000e+00-1.071020960808e-08 5.700000000000e+01
    4.464060000000e+05 4.000000000000e+00
 3 18  4  6  6  0  0.0 4.467274993658e-05 8.071765478235e-12 0.000000000000e+00
    8.500000000000e+01-2.968750000000e+00 4.828772566331e-09-3.017558863359e+00
   -2.197921276093e-07 1.265695202164e-03 6.495043635368e-06 5.153779739380e+03
    4.536000000000e+05-5.960464477539e-08-7.048813613209e-01-3.352761268616e-08
    9.608103109775e-01 2.516875000000e+02 4.647515728942e-01-8.113195089998e-09
    1.714357124141e-11 1.000000000000e+00 1.995000000000e+03 0.000000000000e+00
    2.400000000000e+00 0.000000000000e+00 2.328306436539e-09 8.500000000000e+01
    4.464060000000e+05 4.000000000000e+00
11 18  4  6  6  0  0.0-7.375231944025e-04 1.136868377216e-13 0.000000000000e+00
    7.000000000000e+00-5.050000000000e+01 5.629163048664e-09-2.842366498739e+00
   -2.671033143997e-06 1.672705798410e-02 8.316710591316e-06 5.153626445770e+03
    4.536000000000e+05 1.937150955200e-07-2.171664623760e+00 1.657754182816e-07
    9.046544888907e-01 1.816562500000e+02 1.749704848584e+00-8.285345117881e-09
    2.578678840896e-10 1.000000000000e+00 1.995000000000e+03 0.000000000000e+00
    2.400000000000e+00 0.000000000000e+00-1.210719347000e-08 7.000000000000e+00
    4.464060000000e+05 4.000000000000e+00
19 18  4  6  6  0  0.0-4.457021132112e-04 2.728484105319e-12 0.000000000000e+00
    7.000000000000e+00-8.500000000000e+01 4.064455015151e-09 2.937508525878e+00
   -4.457309842110e-06 9.796714177355e-03 7.273629307747e-06 5.153713079453e+03
    4.536000000000e+05 6.146728992462e-08-2.703593899561e+00-1.192092895508e-07
    9.800891632991e-01 2.493750000000e+02 1.148956766913e+00-7.745322623776e-09
   -2.892977646988e-11 1.000000000000e+00 1.995000000000e+03 0.000000000000e+00
    2.400000000000e+00 0.000000000000e+00-1.536682248116e-08 7.000000000000e+00
    4.464060000000e+05 4.000000000000e+00
